start=new Date('2023-02-10T00:00:00.000Z').valueOf();
sats=[{"LAUNCH_DATE":"2022-07-24","RA_OF_ASC_NODE":"201.0933","ECCENTRICITY":"0.00012650","APOAPSIS":"540.633","TLE_LINE1":"1 53266U 22086AA  23040.43529075  .00000821  00000-0  69698-4 0  9997","MEAN_MOTION":"15.08836024","DECAY_DATE":null,"PERIOD":"95.438","INCLINATION":"53.2166","SITE":"AFETR","OBJECT_NAME":"STARLINK-4058","CLASSIFICATION_TYPE":"U","GP_ID":"224927685","OBJECT_TYPE":"PAYLOAD","ELEMENT_SET_NO":"999","RCS_SIZE":"LARGE","BSTAR":"0.00006969800000","MEAN_ANOMALY":"278.1365","REV_AT_EPOCH":"3116","NORAD_CAT_ID":"53266","EPHEMERIS_TYPE":"0","ARG_OF_PERICENTER":"81.9770","EPOCH":"2023-02-09T10:26:49.120800","OBJECT_ID":"2022-086AA","MEAN_MOTION_DDOT":"0.0000000000000","REF_FRAME":"TEME","PERIAPSIS":"538.882","CENTER_NAME":"EARTH","FILE":"3782845","MEAN_ELEMENT_THEORY":"SGP4","COUNTRY_CODE":"US","SEMIMAJOR_AXIS":"6917.893","TIME_SYSTEM":"UTC","TLE_LINE2":"2 53266  53.2166 201.0933 0001265  81.9770 278.1365 15.08836024 31161","MEAN_MOTION_DOT":"0.00000821"},{"CLASSIFICATION_TYPE":"U","OBJECT_NAME":"STARLINK-4060","SITE":"AFETR","PERIOD":"95.437","INCLINATION":"53.2171","OBJECT_TYPE":"PAYLOAD","GP_ID":"224960441","ECCENTRICITY":"0.00011350","RA_OF_ASC_NODE":"199.6591","LAUNCH_DATE":"2022-07-24","DECAY_DATE":null,"MEAN_MOTION":"15.08844396","TLE_LINE1":"1 53267U 22086AB  23040.75544518  .00001386  00000-0  10512-3 0  9999","APOAPSIS":"540.517","CENTER_NAME":"EARTH","PERIAPSIS":"538.947","REF_FRAME":"TEME","MEAN_MOTION_DDOT":"0.0000000000000","OBJECT_ID":"2022-086AB","MEAN_MOTION_DOT":"0.00001386","TLE_LINE2":"2 53267  53.2171 199.6591 0001135  89.6288 270.4834 15.08844396 31397","TIME_SYSTEM":"UTC","SEMIMAJOR_AXIS":"6917.867","COUNTRY_CODE":"US","FILE":"3783241","MEAN_ELEMENT_THEORY":"SGP4","NORAD_CAT_ID":"53267","EPHEMERIS_TYPE":"0","REV_AT_EPOCH":"3139","MEAN_ANOMALY":"270.4834","BSTAR":"0.00010512000000","RCS_SIZE":"LARGE","ELEMENT_SET_NO":"999","EPOCH":"2023-02-09T18:07:50.463552","ARG_OF_PERICENTER":"89.6288"},{"LAUNCH_DATE":"2022-07-24","RA_OF_ASC_NODE":"199.6388","ECCENTRICITY":"0.00010260","APOAPSIS":"540.440","TLE_LINE1":"1 53268U 22086AC  23040.75912478  .00000444  00000-0  45954-4 0  9997","MEAN_MOTION":"15.08845009","DECAY_DATE":null,"CLASSIFICATION_TYPE":"U","OBJECT_NAME":"STARLINK-4109","INCLINATION":"53.2167","PERIOD":"95.437","SITE":"AFETR","GP_ID":"224960691","OBJECT_TYPE":"PAYLOAD","RCS_SIZE":"LARGE","ELEMENT_SET_NO":"999","BSTAR":"0.00004595400000","REV_AT_EPOCH":"3139","NORAD_CAT_ID":"53268","EPHEMERIS_TYPE":"0","MEAN_ANOMALY":"263.5432","ARG_OF_PERICENTER":"96.5677","EPOCH":"2023-02-09T18:13:08.380992","OBJECT_ID":"2022-086AC","REF_FRAME":"TEME","MEAN_MOTION_DDOT":"0.0000000000000","PERIAPSIS":"539.020","CENTER_NAME":"EARTH","COUNTRY_CODE":"US","SEMIMAJOR_AXIS":"6917.865","MEAN_ELEMENT_THEORY":"SGP4","FILE":"3783241","TIME_SYSTEM":"UTC","TLE_LINE2":"2 53268  53.2167 199.6388 0001026  96.5677 263.5432 15.08845009 31394","MEAN_MOTION_DOT":"0.00000444"},{"INCLINATION":"53.2174","PERIOD":"95.437","SITE":"AFETR","OBJECT_NAME":"STARLINK-4057","CLASSIFICATION_TYPE":"U","GP_ID":"224961936","OBJECT_TYPE":"PAYLOAD","ECCENTRICITY":"0.00012600","RA_OF_ASC_NODE":"189.3851","LAUNCH_DATE":"2022-07-24","MEAN_MOTION":"15.08843121","DECAY_DATE":null,"APOAPSIS":"540.608","TLE_LINE1":"1 53269U 22086AD  23040.81524610  .00002418  00000-0  16996-3 0  9998","PERIAPSIS":"538.864","CENTER_NAME":"EARTH","OBJECT_ID":"2022-086AD","MEAN_MOTION_DDOT":"0.0000000000000","REF_FRAME":"TEME","TLE_LINE2":"2 53269  53.2174 189.3851 0001260  90.6946 269.4190 15.08843121 31533","TIME_SYSTEM":"UTC","MEAN_MOTION_DOT":"0.00002418","MEAN_ELEMENT_THEORY":"SGP4","FILE":"3783241","COUNTRY_CODE":"US","SEMIMAJOR_AXIS":"6917.871","MEAN_ANOMALY":"269.4190","REV_AT_EPOCH":"3153","EPHEMERIS_TYPE":"0","NORAD_CAT_ID":"53269","ELEMENT_SET_NO":"999","RCS_SIZE":"LARGE","BSTAR":"0.00016996000000","EPOCH":"2023-02-09T19:33:57.263040","ARG_OF_PERICENTER":"90.6946"},{"TLE_LINE2":"2 53271  53.2150 190.3149 0001261  80.0685 280.0449 15.08837079 31504","TIME_SYSTEM":"UTC","MEAN_MOTION_DOT":"0.00001208","COUNTRY_CODE":"US","SEMIMAJOR_AXIS":"6917.889","MEAN_ELEMENT_THEORY":"SGP4","FILE":"3783241","PERIAPSIS":"538.882","CENTER_NAME":"EARTH","OBJECT_ID":"2022-086AF","REF_FRAME":"TEME","MEAN_MOTION_DDOT":"0.0000000000000","EPOCH":"2023-02-09T14:37:12.326880","ARG_OF_PERICENTER":"80.0685","REV_AT_EPOCH":"3150","EPHEMERIS_TYPE":"0","NORAD_CAT_ID":"53271","MEAN_ANOMALY":"280.0449","RCS_SIZE":"LARGE","ELEMENT_SET_NO":"999","BSTAR":"0.00009400600000","GP_ID":"224960931","OBJECT_TYPE":"PAYLOAD","CLASSIFICATION_TYPE":"U","OBJECT_NAME":"STARLINK-4069","INCLINATION":"53.2150","PERIOD":"95.438","SITE":"AFETR","MEAN_MOTION":"15.08837079","DECAY_DATE":null,"APOAPSIS":"540.627","TLE_LINE1":"1 53271U 22086AF  23040.60917045  .00001208  00000-0  94006-4 0  9991","ECCENTRICITY":"0.00012610","RA_OF_ASC_NODE":"190.3149","LAUNCH_DATE":"2022-07-24"},{"MEAN_MOTION_DOT":"0.00000345","TIME_SYSTEM":"UTC","TLE_LINE2":"2 53272  53.2172 190.5568 0001282  83.9474 276.1665 15.08841198 31498","FILE":"3783241","MEAN_ELEMENT_THEORY":"SGP4","SEMIMAJOR_AXIS":"6917.877","COUNTRY_CODE":"US","CENTER_NAME":"EARTH","PERIAPSIS":"538.855","MEAN_MOTION_DDOT":"0.0000000000000","REF_FRAME":"TEME","OBJECT_ID":"2022-086AG","EPOCH":"2023-02-09T13:17:42.742752","ARG_OF_PERICENTER":"83.9474","MEAN_ANOMALY":"276.1665","NORAD_CAT_ID":"53272","EPHEMERIS_TYPE":"0","REV_AT_EPOCH":"3149","RCS_SIZE":"LARGE","BSTAR":"0.00003978600000","ELEMENT_SET_NO":"999","OBJECT_TYPE":"PAYLOAD","GP_ID":"224960941","SITE":"AFETR","PERIOD":"95.437","INCLINATION":"53.2172","OBJECT_NAME":"STARLINK-4122","CLASSIFICATION_TYPE":"U","DECAY_DATE":null,"MEAN_MOTION":"15.08841198","TLE_LINE1":"1 53272U 22086AG  23040.55396693  .00000345  00000-0  39786-4 0  9991","APOAPSIS":"540.629","RA_OF_ASC_NODE":"190.5568","ECCENTRICITY":"0.00012820","LAUNCH_DATE":"2022-07-24"},{"MEAN_MOTION_DOT":"0.00000401","TLE_LINE2":"2 53273  53.2135 189.7582 0001013  87.6246 272.4862 15.08846587 31512","TIME_SYSTEM":"UTC","FILE":"3783241","MEAN_ELEMENT_THEORY":"SGP4","SEMIMAJOR_AXIS":"6917.860","COUNTRY_CODE":"US","CENTER_NAME":"EARTH","PERIAPSIS":"539.024","MEAN_MOTION_DDOT":"0.0000000000000","REF_FRAME":"TEME","OBJECT_ID":"2022-086AH","EPOCH":"2023-02-09T17:37:22.343232","ARG_OF_PERICENTER":"87.6246","MEAN_ANOMALY":"272.4862","NORAD_CAT_ID":"53273","EPHEMERIS_TYPE":"0","REV_AT_EPOCH":"3151","ELEMENT_SET_NO":"999","RCS_SIZE":"LARGE","BSTAR":"0.00004327100000","OBJECT_TYPE":"PAYLOAD","GP_ID":"224961191","SITE":"AFETR","INCLINATION":"53.2135","PERIOD":"95.437","CLASSIFICATION_TYPE":"U","OBJECT_NAME":"STARLINK-4051","DECAY_DATE":null,"MEAN_MOTION":"15.08846587","TLE_LINE1":"1 53273U 22086AH  23040.73428638  .00000401  00000-0  43271-4 0  9994","APOAPSIS":"540.426","RA_OF_ASC_NODE":"189.7582","ECCENTRICITY":"0.00010130","LAUNCH_DATE":"2022-07-24"},{"EPHEMERIS_TYPE":"0","NORAD_CAT_ID":"53274","REV_AT_EPOCH":"3150","MEAN_ANOMALY":"268.1628","BSTAR":"0.00001814900000","RCS_SIZE":"LARGE","ELEMENT_SET_NO":"999","EPOCH":"2023-02-09T14:42:30.335904","ARG_OF_PERICENTER":"91.9520","CENTER_NAME":"EARTH","PERIAPSIS":"538.820","REF_FRAME":"TEME","MEAN_MOTION_DDOT":"0.0000000000000","OBJECT_ID":"2022-086AJ","MEAN_MOTION_DOT":"0.00000001","TLE_LINE2":"2 53274  53.2168 190.2948 0001362  91.9520 268.1628 15.08834506 31501","TIME_SYSTEM":"UTC","SEMIMAJOR_AXIS":"6917.897","COUNTRY_CODE":"US","MEAN_ELEMENT_THEORY":"SGP4","FILE":"3783241","ECCENTRICITY":"0.00013620","RA_OF_ASC_NODE":"190.2948","LAUNCH_DATE":"2022-07-24","DECAY_DATE":null,"MEAN_MOTION":"15.08834506","TLE_LINE1":"1 53274U 22086AJ  23040.61285111  .00000001  00000-0  18149-4 0  9991","APOAPSIS":"540.704","CLASSIFICATION_TYPE":"U","OBJECT_NAME":"STARLINK-4050","SITE":"AFETR","PERIOD":"95.438","INCLINATION":"53.2168","OBJECT_TYPE":"PAYLOAD","GP_ID":"224961437"},{"TLE_LINE1":"1 53275U 22086AK  23040.79684224  .00005736  00000-0  37805-3 0  9998","APOAPSIS":"540.515","DECAY_DATE":null,"MEAN_MOTION":"15.08853049","LAUNCH_DATE":"2022-07-24","ECCENTRICITY":"0.00011700","RA_OF_ASC_NODE":"189.4778","OBJECT_TYPE":"PAYLOAD","GP_ID":"224962184","SITE":"AFETR","PERIOD":"95.437","INCLINATION":"53.2120","CLASSIFICATION_TYPE":"U","OBJECT_NAME":"STARLINK-4179","ARG_OF_PERICENTER":"98.0184","EPOCH":"2023-02-09T19:07:27.169536","ELEMENT_SET_NO":"999","RCS_SIZE":"LARGE","BSTAR":"0.00037805000000","MEAN_ANOMALY":"262.0941","EPHEMERIS_TYPE":"0","NORAD_CAT_ID":"53275","REV_AT_EPOCH":"3152","MEAN_ELEMENT_THEORY":"SGP4","FILE":"3783241","SEMIMAJOR_AXIS":"6917.841","COUNTRY_CODE":"US","MEAN_MOTION_DOT":"0.00005736","TIME_SYSTEM":"UTC","TLE_LINE2":"2 53275  53.2120 189.4778 0001170  98.0184 262.0941 15.08853049 31528","MEAN_MOTION_DDOT":"0.0000000000000","REF_FRAME":"TEME","OBJECT_ID":"2022-086AK","CENTER_NAME":"EARTH","PERIAPSIS":"538.896"},{"APOAPSIS":"540.718","TLE_LINE1":"1 53276U 22086AL  23040.60548888  .00001706  00000-0  12524-3 0  9998","MEAN_MOTION":"15.08840777","DECAY_DATE":null,"LAUNCH_DATE":"2022-07-24","RA_OF_ASC_NODE":"190.3320","ECCENTRICITY":"0.00014090","GP_ID":"224960442","OBJECT_TYPE":"PAYLOAD","CLASSIFICATION_TYPE":"U","OBJECT_NAME":"STARLINK-4174","PERIOD":"95.438","INCLINATION":"53.2166","SITE":"AFETR","ARG_OF_PERICENTER":"84.8197","EPOCH":"2023-02-09T14:31:54.239232","ELEMENT_SET_NO":"999","RCS_SIZE":"LARGE","BSTAR":"0.00012524000000","REV_AT_EPOCH":"3149","EPHEMERIS_TYPE":"0","NORAD_CAT_ID":"53276","MEAN_ANOMALY":"275.2956","COUNTRY_CODE":"US","SEMIMAJOR_AXIS":"6917.878","FILE":"3783241","MEAN_ELEMENT_THEORY":"SGP4","TIME_SYSTEM":"UTC","TLE_LINE2":"2 53276  53.2166 190.3320 0001409  84.8197 275.2956 15.08840777 31497","MEAN_MOTION_DOT":"0.00001706","OBJECT_ID":"2022-086AL","MEAN_MOTION_DDOT":"0.0000000000000","REF_FRAME":"TEME","PERIAPSIS":"538.768","CENTER_NAME":"EARTH"}];
